{
  "type": "FeatureCollection",
  "features": [
    {
      "type": "Feature",
      "properties": {
        "norad_id": 30282,
        "name": "FENGYUN 1C DEB",
        "group": "fengyun-1c-debris",
        "lat": -68.67374039958439,
        "lon": 6.56980374999027,
        "alt_km": 854.2657325714863,
        "timestamp": "2025-12-06T11:28:11.337773+00:00",
        "meta_object_name": "FENGYUN 1C DEB",
        "meta_object_id": "1999-025YT",
        "meta_epoch": "2025-12-06T00:01:00.528384",
        "meta_mean_motion": 14.12956268,
        "meta_eccentricity": 0.02107126,
        "meta_inclination": 98.5015,
        "meta_ra_of_asc_node": 343.5895,
        "meta_arg_of_pericenter": 21.4018,
        "meta_mean_anomaly": 4.6636,
        "meta_ephemeris_type": 0,
        "meta_classification_type": "U",
        "meta_norad_cat_id": 30282,
        "meta_element_set_no": 999,
        "meta_rev_at_epoch": 97256,
        "meta_bstar": 0.00056946305,
        "meta_mean_motion_dot": 1.268e-05,
        "meta_mean_motion_ddot": 0,
        "tle_line1": "1 30282U 99025YT  25340.00070056  .00001268  00000+0  56946-3 0  9991",
        "tle_line2": "2 30282  98.5015 343.5895 0210712  21.4018   4.6636 14.12956268972569"
      },
      "geometry": {
        "type": "Point",
        "coordinates": [
          6.56980374999027,
          -68.67374039958439
        ]
      }
    },
    {
      "type": "Feature",
      "properties": {
        "norad_id": 30283,
        "name": "FENGYUN 1C DEB",
        "group": "fengyun-1c-debris",
        "lat": 66.90366234920747,
        "lon": 175.80491321733638,
        "alt_km": 793.7260581123901,
        "timestamp": "2025-12-06T11:28:11.337784+00:00",
        "meta_object_name": "FENGYUN 1C DEB",
        "meta_object_id": "1999-025YU",
        "meta_epoch": "2025-12-05T23:13:11.042688",
        "meta_mean_motion": 14.01972313,
        "meta_eccentricity": 0.01852505,
        "meta_inclination": 98.8672,
        "meta_ra_of_asc_node": 333.8359,
        "meta_arg_of_pericenter": 62.0653,
        "meta_mean_anomaly": 352.9576,
        "meta_ephemeris_type": 0,
        "meta_classification_type": "U",
        "meta_norad_cat_id": 30283,
        "meta_element_set_no": 999,
        "meta_rev_at_epoch": 96596,
        "meta_bstar": 9.3969814e-05,
        "meta_mean_motion_dot": 1.25e-06,
        "meta_mean_motion_ddot": 0,
        "tle_line1": "1 30283U 99025YU  25339.96748892  .00000125  00000+0  93970-4 0  9995",
        "tle_line2": "2 30283  98.8672 333.8359 0185250  62.0653 352.9576 14.01972313965968"
      },
      "geometry": {
        "type": "Point",
        "coordinates": [
          175.80491321733638,
          66.90366234920747
        ]
      }
    },
    {
      "type": "Feature",
      "properties": {
        "norad_id": 30284,
        "name": "FENGYUN 1C DEB",
        "group": "fengyun-1c-debris",
        "lat": 80.97716019525633,
        "lon": -26.231339513197636,
        "alt_km": 767.3922820232165,
        "timestamp": "2025-12-06T11:28:11.337794+00:00",
        "meta_object_name": "FENGYUN 1C DEB",
        "meta_object_id": "1999-025YV",
        "meta_epoch": "2025-12-05T21:52:32.352384",
        "meta_mean_motion": 14.286862,
        "meta_eccentricity": 0.00380739,
        "meta_inclination": 98.7208,
        "meta_ra_of_asc_node": 48.3556,
        "meta_arg_of_pericenter": 128.4063,
        "meta_mean_anomaly": 287.9469,
        "meta_ephemeris_type": 0,
        "meta_classification_type": "U",
        "meta_norad_cat_id": 30284,
        "meta_element_set_no": 999,
        "meta_rev_at_epoch": 97418,
        "meta_bstar": 0.0026611009,
        "meta_mean_motion_dot": 6.704e-05,
        "meta_mean_motion_ddot": 0,
        "tle_line1": "1 30284U 99025YV  25339.91148556  .00006704  00000+0  26611-2 0  9997",
        "tle_line2": "2 30284  98.7208  48.3556 0038073 128.4063 287.9469 14.28686200974180"
      },
      "geometry": {
        "type": "Point",
        "coordinates": [
          -26.231339513197636,
          80.97716019525633
        ]
      }
    },
    {
      "type": "Feature",
      "properties": {
        "norad_id": 30286,
        "name": "FENGYUN 1C DEB",
        "group": "fengyun-1c-debris",
        "lat": 20.916949882888318,
        "lon": 168.37743180341383,
        "alt_km": 803.8224963576013,
        "timestamp": "2025-12-06T11:28:11.337805+00:00",
        "meta_object_name": "FENGYUN 1C DEB",
        "meta_object_id": "1999-025YX",
        "meta_epoch": "2025-12-05T23:07:45.839136",
        "meta_mean_motion": 14.12719817,
        "meta_eccentricity": 0.00644391,
        "meta_inclination": 98.69,
        "meta_ra_of_asc_node": 344.5275,
        "meta_arg_of_pericenter": 151.8635,
        "meta_mean_anomaly": 273.1841,
        "meta_ephemeris_type": 0,
        "meta_classification_type": "U",
        "meta_norad_cat_id": 30286,
        "meta_element_set_no": 999,
        "meta_rev_at_epoch": 97363,
        "meta_bstar": 0.00015831473,
        "meta_mean_motion_dot": 2.57e-06,
        "meta_mean_motion_ddot": 0,
        "tle_line1": "1 30286U 99025YX  25339.96372499  .00000257  00000+0  15831-3 0  9999",
        "tle_line2": "2 30286  98.6900 344.5275 0064439 151.8635 273.1841 14.12719817973633"
      },
      "geometry": {
        "type": "Point",
        "coordinates": [
          168.37743180341383,
          20.916949882888318
        ]
      }
    },
    {
      "type": "Feature",
      "properties": {
        "norad_id": 30287,
        "name": "FENGYUN 1C DEB",
        "group": "fengyun-1c-debris",
        "lat": -74.70487882563908,
        "lon": 49.09783553593562,
        "alt_km": 1085.8660427242457,
        "timestamp": "2025-12-06T11:28:11.337815+00:00",
        "meta_object_name": "FENGYUN 1C DEB",
        "meta_object_id": "1999-025YY",
        "meta_epoch": "2025-12-05T15:20:44.235168",
        "meta_mean_motion": 13.68557714,
        "meta_eccentricity": 0.04137293,
        "meta_inclination": 98.6382,
        "meta_ra_of_asc_node": 14.5756,
        "meta_arg_of_pericenter": 31.1967,
        "meta_mean_anomaly": 87.1407,
        "meta_ephemeris_type": 0,
        "meta_classification_type": "U",
        "meta_norad_cat_id": 30287,
        "meta_element_set_no": 999,
        "meta_rev_at_epoch": 93761,
        "meta_bstar": 0.0018114062,
        "meta_mean_motion_dot": 2.793e-05,
        "meta_mean_motion_ddot": 0,
        "tle_line1": "1 30287U 99025YY  25339.63940087  .00002793  00000+0  18114-2 0  9991",
        "tle_line2": "2 30287  98.6382  14.5756 0413729  31.1967  87.1407 13.68557714937619"
      },
      "geometry": {
        "type": "Point",
        "coordinates": [
          49.09783553593562,
          -74.70487882563908
        ]
      }
    },
    {
      "type": "Feature",
      "properties": {
        "norad_id": 30288,
        "name": "FENGYUN 1C DEB",
        "group": "fengyun-1c-debris",
        "lat": -26.20539078774371,
        "lon": -123.0669899686076,
        "alt_km": 799.2336724378401,
        "timestamp": "2025-12-06T11:28:11.337825+00:00",
        "meta_object_name": "FENGYUN 1C DEB",
        "meta_object_id": "1999-025YZ",
        "meta_epoch": "2025-12-05T04:28:17.747328",
        "meta_mean_motion": 14.32474532,
        "meta_eccentricity": 0.00201759,
        "meta_inclination": 99.3961,
        "meta_ra_of_asc_node": 60.2091,
        "meta_arg_of_pericenter": 345.3952,
        "meta_mean_anomaly": 44.2785,
        "meta_ephemeris_type": 0,
        "meta_classification_type": "U",
        "meta_norad_cat_id": 30288,
        "meta_element_set_no": 999,
        "meta_rev_at_epoch": 97461,
        "meta_bstar": 0.0038377961,
        "meta_mean_motion_dot": 0.00010383,
        "meta_mean_motion_ddot": 0,
        "tle_line1": "1 30288U 99025YZ  25339.18631652  .00010383  00000+0  38378-2 0  9995",
        "tle_line2": "2 30288  99.3961  60.2091 0020175 345.3952  44.2785 14.32474532974616"
      },
      "geometry": {
        "type": "Point",
        "coordinates": [
          -123.0669899686076,
          -26.20539078774371
        ]
      }
    },
    {
      "type": "Feature",
      "properties": {
        "norad_id": 30289,
        "name": "FENGYUN 1C DEB",
        "group": "fengyun-1c-debris",
        "lat": 49.897825901029655,
        "lon": -92.38907817017187,
        "alt_km": 821.764481591953,
        "timestamp": "2025-12-06T11:28:11.337836+00:00",
        "meta_object_name": "FENGYUN 1C DEB",
        "meta_object_id": "1999-025ZA",
        "meta_epoch": "2025-12-05T13:33:48.618720",
        "meta_mean_motion": 14.25724797,
        "meta_eccentricity": 0.00370383,
        "meta_inclination": 98.9279,
        "meta_ra_of_asc_node": 75.9237,
        "meta_arg_of_pericenter": 351.7875,
        "meta_mean_anomaly": 134.886,
        "meta_ephemeris_type": 0,
        "meta_classification_type": "U",
        "meta_norad_cat_id": 30289,
        "meta_element_set_no": 999,
        "meta_rev_at_epoch": 96979,
        "meta_bstar": 0.0035305972,
        "meta_mean_motion_dot": 8.404e-05,
        "meta_mean_motion_ddot": 0,
        "tle_line1": "1 30289U 99025ZA  25339.56514605  .00008404  00000+0  35306-2 0  9995",
        "tle_line2": "2 30289  98.9279  75.9237 0037038 351.7875 134.8860 14.25724797969796"
      },
      "geometry": {
        "type": "Point",
        "coordinates": [
          -92.38907817017187,
          49.897825901029655
        ]
      }
    }
  ]
}